GLOBALSTAR M075         
1 37192U 10054E   25050.64390749 -.00000078  00000+0  14453-3 0  9991
2 37192  51.9939 179.4281 0000898 109.4121 264.0362 12.62273081661003
GLOBALSTAR M073         
1 37193U 10054F   25050.42638628 -.00000089  00000+0  80159-4 0  9998
2 37193  52.0054  93.8228 0000595 108.3609 354.1420 12.62263486662967
GLOBALSTAR M083         
1 37739U 11033A   25050.52944247 -.00000103  00000+0  16387-5 0  9990
2 37739  51.9869  42.3970 0000312  64.1632  88.5550 12.62264423632354
GLOBALSTAR M088         
1 37740U 11033B   25050.42804360 -.00000074  00000+0  16384-3 0  9994
2 37740  51.9749 308.3006 0000671  62.1484 109.7290 12.62263041627524
GLOBALSTAR M091         
1 37741U 11033C   25050.36216954 -.00000086  00000+0  96976-4 0  9993
2 37741  51.9985 271.8471 0000785  59.7270 111.8003 12.62264945628305
GLOBALSTAR M085         
1 37742U 11033D   25050.81009001 -.00000085  00000+0  10274-3 0  9992
2 37742  51.9848 221.6230 0000868  80.8524  27.0575 12.62265507629363
GLOBALSTAR M081         
1 37743U 11033E   25050.58139343 -.00000081  00000+0  12478-3 0  9994
2 37743  51.9934 225.0325 0001065  80.8366 308.1557 12.62260937628990
GLOBALSTAR M089         
1 37744U 11033F   25050.72769744 -.00000086  00000+0  99345-4 0  9999
2 37744  51.9920 178.8373 0001091 111.4761  42.0747 12.62266284630105
